{
  "type": "FeatureCollection",
  "features": [
    {
      "type": "Feature",
      "properties": {
        "norad_id": 33412,
        "name": "COSMO-SKYMED 3",
        "group": "resource",
        "lat": -72.88239110710127,
        "lon": -16.927437083001053,
        "alt_km": 552.0351196450829,
        "timestamp": "2025-12-05T09:41:18.778147+00:00",
        "meta_object_name": "COSMO-SKYMED 3",
        "meta_object_id": "2008-054A",
        "meta_epoch": "2025-12-04T18:12:06.753600",
        "meta_mean_motion": 15.05235671,
        "meta_eccentricity": 0.0015568,
        "meta_inclination": 97.846,
        "meta_ra_of_asc_node": 189.0161,
        "meta_arg_of_pericenter": 200.7258,
        "meta_mean_anomaly": 159.3339,
        "meta_ephemeris_type": 0,
        "meta_classification_type": "U",
        "meta_norad_cat_id": 33412,
        "meta_element_set_no": 999,
        "meta_rev_at_epoch": 92767,
        "meta_bstar": 0.00068411,
        "meta_mean_motion_dot": 9.737e-05,
        "meta_mean_motion_ddot": 0,
        "tle_line1": "1 33412U 08054A   25338.75841150  .00009737  00000+0  68411-3 0  9990",
        "tle_line2": "2 33412  97.8460 189.0161 0015568 200.7258 159.3339 15.05235671927673"
      },
      "geometry": {
        "type": "Point",
        "coordinates": [
          -16.927437083001053,
          -72.88239110710127
        ]
      }
    },
    {
      "type": "Feature",
      "properties": {
        "norad_id": 33446,
        "name": "YAOGAN-4",
        "group": "resource",
        "lat": 65.81528640617746,
        "lon": 107.62657540722063,
        "alt_km": 620.288641338404,
        "timestamp": "2025-12-05T09:41:18.778157+00:00",
        "meta_object_name": "YAOGAN-4",
        "meta_object_id": "2008-061A",
        "meta_epoch": "2025-12-04T16:59:04.308864",
        "meta_mean_motion": 14.82643182,
        "meta_eccentricity": 0.0014289,
        "meta_inclination": 97.9172,
        "meta_ra_of_asc_node": 268.8863,
        "meta_arg_of_pericenter": 350.1762,
        "meta_mean_anomaly": 9.917,
        "meta_ephemeris_type": 0,
        "meta_classification_type": "U",
        "meta_norad_cat_id": 33446,
        "meta_element_set_no": 999,
        "meta_rev_at_epoch": 91684,
        "meta_bstar": 0.00041256,
        "meta_mean_motion_dot": 3.277e-05,
        "meta_mean_motion_ddot": 0,
        "tle_line1": "1 33446U 08061A   25338.70768876  .00003277  00000+0  41256-3 0  9994",
        "tle_line2": "2 33446  97.9172 268.8863 0014289 350.1762   9.9170 14.82643182916849"
      },
      "geometry": {
        "type": "Point",
        "coordinates": [
          107.62657540722063,
          65.81528640617746
        ]
      }
    },
    {
      "type": "Feature",
      "properties": {
        "norad_id": 33492,
        "name": "GOSAT (IBUKI)",
        "group": "resource",
        "lat": -23.29513275877181,
        "lon": -95.39653194306037,
        "alt_km": 674.7351274322991,
        "timestamp": "2025-12-05T09:41:18.778168+00:00",
        "meta_object_name": "GOSAT (IBUKI)",
        "meta_object_id": "2009-002A",
        "meta_epoch": "2025-12-04T13:07:41.435040",
        "meta_mean_motion": 14.67546506,
        "meta_eccentricity": 9.34e-05,
        "meta_inclination": 98.077,
        "meta_ra_of_asc_node": 87.2643,
        "meta_arg_of_pericenter": 82.6691,
        "meta_mean_anomaly": 277.462,
        "meta_ephemeris_type": 0,
        "meta_classification_type": "U",
        "meta_norad_cat_id": 33492,
        "meta_element_set_no": 999,
        "meta_rev_at_epoch": 90291,
        "meta_bstar": 0.00032095,
        "meta_mean_motion_dot": 1.773e-05,
        "meta_mean_motion_ddot": 0,
        "tle_line1": "1 33492U 09002A   25338.54700735  .00001773  00000+0  32095-3 0  9993",
        "tle_line2": "2 33492  98.0770  87.2643 0000934  82.6691 277.4620 14.67546506902915"
      },
      "geometry": {
        "type": "Point",
        "coordinates": [
          -95.39653194306037,
          -23.29513275877181
        ]
      }
    },
    {
      "type": "Feature",
      "properties": {
        "norad_id": 35681,
        "name": "DEIMOS-1",
        "group": "resource",
        "lat": 81.44133766920162,
        "lon": 76.09660385909277,
        "alt_km": 636.0354583698072,
        "timestamp": "2025-12-05T09:41:18.778180+00:00",
        "meta_object_name": "DEIMOS-1",
        "meta_object_id": "2009-041A",
        "meta_epoch": "2025-12-04T17:01:01.499232",
        "meta_mean_motion": 14.7493367,
        "meta_eccentricity": 0.0002693,
        "meta_inclination": 97.7146,
        "meta_ra_of_asc_node": 139.6867,
        "meta_arg_of_pericenter": 94.7346,
        "meta_mean_anomaly": 265.4171,
        "meta_ephemeris_type": 0,
        "meta_classification_type": "U",
        "meta_norad_cat_id": 35681,
        "meta_element_set_no": 999,
        "meta_rev_at_epoch": 87821,
        "meta_bstar": 0.0002052,
        "meta_mean_motion_dot": 1.331e-05,
        "meta_mean_motion_ddot": 0,
        "tle_line1": "1 35681U 09041A   25338.70904513  .00001331  00000+0  20520-3 0  9996",
        "tle_line2": "2 35681  97.7146 139.6867 0002693  94.7346 265.4171 14.74933670878218"
      },
      "geometry": {
        "type": "Point",
        "coordinates": [
          76.09660385909277,
          81.44133766920162
        ]
      }
    },
    {
      "type": "Feature",
      "properties": {
        "norad_id": 35682,
        "name": "DUBAISAT-1",
        "group": "resource",
        "lat": 30.07505711847331,
        "lon": 105.53279420943944,
        "alt_km": 640.4770309786327,
        "timestamp": "2025-12-05T09:41:18.778191+00:00",
        "meta_object_name": "DUBAISAT-1",
        "meta_object_id": "2009-041B",
        "meta_epoch": "2025-12-04T09:07:21.717408",
        "meta_mean_motion": 14.74567058,
        "meta_eccentricity": 0.0010119,
        "meta_inclination": 97.9787,
        "meta_ra_of_asc_node": 109.1835,
        "meta_arg_of_pericenter": 343.1086,
        "meta_mean_anomaly": 16.9784,
        "meta_ephemeris_type": 0,
        "meta_classification_type": "U",
        "meta_norad_cat_id": 35682,
        "meta_element_set_no": 999,
        "meta_rev_at_epoch": 87638,
        "meta_bstar": 0.00037197,
        "meta_mean_motion_dot": 2.429e-05,
        "meta_mean_motion_ddot": 0,
        "tle_line1": "1 35682U 09041B   25338.38011247  .00002429  00000+0  37197-3 0  9991",
        "tle_line2": "2 35682  97.9787 109.1835 0010119 343.1086  16.9784 14.74567058876381"
      },
      "geometry": {
        "type": "Point",
        "coordinates": [
          105.53279420943944,
          30.07505711847331
        ]
      }
    },
    {
      "type": "Feature",
      "properties": {
        "norad_id": 35931,
        "name": "OCEANSAT-2",
        "group": "resource",
        "lat": 24.360856742199132,
        "lon": -23.005855072532025,
        "alt_km": 885.0707503995127,
        "timestamp": "2025-12-05T09:41:18.778202+00:00",
        "meta_object_name": "OCEANSAT-2",
        "meta_object_id": "2009-051A",
        "meta_epoch": "2025-12-04T18:07:48.512640",
        "meta_mean_motion": 13.99626492,
        "meta_eccentricity": 0.0016533,
        "meta_inclination": 98.2229,
        "meta_ra_of_asc_node": 340.1657,
        "meta_arg_of_pericenter": 65.8249,
        "meta_mean_anomaly": 294.4644,
        "meta_ephemeris_type": 0,
        "meta_classification_type": "U",
        "meta_norad_cat_id": 35931,
        "meta_element_set_no": 999,
        "meta_rev_at_epoch": 85213,
        "meta_bstar": -6.3473e-05,
        "meta_mean_motion_dot": -1.3e-06,
        "meta_mean_motion_ddot": 0,
        "tle_line1": "1 35931U 09051A   25338.75542260 -.00000130  00000+0 -63473-4 0  9990",
        "tle_line2": "2 35931  98.2229 340.1657 0016533  65.8249 294.4644 13.99626492852136"
      },
      "geometry": {
        "type": "Point",
        "coordinates": [
          -23.005855072532025,
          24.360856742199132
        ]
      }
    },
    {
      "type": "Feature",
      "properties": {
        "norad_id": 35946,
        "name": "WORLDVIEW-2 (WV-2)",
        "group": "resource",
        "lat": -42.40400725436729,
        "lon": -137.23759677791574,
        "alt_km": 775.7930799416163,
        "timestamp": "2025-12-05T09:41:18.778213+00:00",
        "meta_object_name": "WORLDVIEW-2 (WV-2)",
        "meta_object_id": "2009-055A",
        "meta_epoch": "2025-12-04T15:57:06.520320",
        "meta_mean_motion": 14.37647123,
        "meta_eccentricity": 0.0005431,
        "meta_inclination": 98.477,
        "meta_ra_of_asc_node": 49.8618,
        "meta_arg_of_pericenter": 86.3021,
        "meta_mean_anomaly": 273.8787,
        "meta_ephemeris_type": 0,
        "meta_classification_type": "U",
        "meta_norad_cat_id": 35946,
        "meta_element_set_no": 999,
        "meta_rev_at_epoch": 84769,
        "meta_bstar": 0.00014761,
        "meta_mean_motion_dot": 4e-06,
        "meta_mean_motion_ddot": 0,
        "tle_line1": "1 35946U 09055A   25338.66465880  .00000400  00000+0  14761-3 0  9995",
        "tle_line2": "2 35946  98.4770  49.8618 0005431  86.3021 273.8787 14.37647123847697"
      },
      "geometry": {
        "type": "Point",
        "coordinates": [
          -137.23759677791574,
          -42.40400725436729
        ]
      }
    }
  ]
}